IRIDIUM 150             
1 43257U 18030J   23302.80771978  .00000463  00000+0  15819-3 0  9999
2 43257  86.3964 332.2746 0002100 101.5049 258.6383 14.34218453292361
IRIDIUM 143             
1 43258U 18030K   23302.78869922  .00000466  00000+0  15947-3 0  9999
2 43258  86.3969 332.3368 0002373  97.9160 262.2305 14.34218886292299
IRIDIUM 161             
1 43478U 18047C   23302.89681738  .00000306  00000+0  84873-4 0  9998
2 43478  86.4463 130.2653 0002058  88.3596 271.7841 14.43274300286489
IRIDIUM 152             
1 43479U 18047D   23302.90097642  .00000021  00000+0  41925-6 0  9993
2 43479  86.3937 130.1234 0002323  91.9291 268.2171 14.34218425284702
IRIDIUM 147             
1 43480U 18047E   23302.90728996  .00000169  00000+0  53313-4 0  9993
2 43480  86.3939 130.1088 0001958  83.7137 276.4282 14.34218636284702
IRIDIUM 110             
1 43481U 18047F   23302.91363148  .00000136  00000+0  41342-4 0  9992
2 43481  86.3941 130.1730 0001825  84.2051 275.9353 14.34217050284694
IRIDIUM 162             
1 43482U 18047G   23302.89058238  .00000230  00000+0  62503-4 0  9998
2 43482  86.4462 130.1710 0002071  88.3255 271.8183 14.43279521286472
IRIDIUM 160             
1 43569U 18061A   23302.92924396  .00000162  00000+0  50676-4 0  9993
2 43569  86.3926  98.5239 0002310  86.2525 273.8935 14.34218148275594
